{"fetched_at":"2026-03-30T06:02:59Z","count":15439,"tles":[{"name":"STARLINK-11701 [DTC]","line1":"1 63760U 25089K   26087.66397309  .00216485  00000+0  16473-2 0  9990","line2":"2 63760  43.0024 177.5151 0001416 250.1316 109.9400 15.70835835 53123","category":"Starlink"}]}